[{"OBJECT_NAME":"IRNSS-1I","OBJECT_ID":"2018-035A","EPOCH":"2026-06-24T19:11:38.629824","MEAN_MOTION":1.0027596,"ECCENTRICITY":0.00176215,"INCLINATION":28.7725,"RA_OF_ASC_NODE":74.0767,"ARG_OF_PERICENTER":182.3144,"MEAN_ANOMALY":359.3363,"EPHEMERIS_TYPE":0,"CLASSIFICATION_TYPE":"U","NORAD_CAT_ID":43286,"ELEMENT_SET_NO":999,"REV_AT_EPOCH":3015,"BSTAR":0,"MEAN_MOTION_DOT":6.6e-7,"MEAN_MOTION_DDOT":0},{"OBJECT_NAME":"COSMOS 2527 (756)","OBJECT_ID":"2018-053A","EPOCH":"2026-06-26T00:00:57.081024","MEAN_MOTION":2.13102108,"ECCENTRICITY":0.00068737,"INCLINATION":65.5828,"RA_OF_ASC_NODE":73.6132,"ARG_OF_PERICENTER":236.8993,"MEAN_ANOMALY":123.0709,"EPHEMERIS_TYPE":0,"CLASSIFICATION_TYPE":"U","NORAD_CAT_ID":43508,"ELEMENT_SET_NO":999,"REV_AT_EPOCH":6246,"BSTAR":0,"MEAN_MOTION_DOT":-6.2e-7,"MEAN_MOTION_DDOT":0},{"OBJECT_NAME":"BEIDOU-2 IGSO-7 (C16)","OBJECT_ID":"2018-057A","EPOCH":"2026-06-26T12:08:29.940576","MEAN_MOTION":1.00249004,"ECCENTRICITY":0.0104768,"INCLINATION":55.197,"RA_OF_ASC_NODE":162.9757,"ARG_OF_PERICENTER":237.979,"MEAN_ANOMALY":164.9478,"EPHEMERIS_TYPE":0,"CLASSIFICATION_TYPE":"U","NORAD_CAT_ID":43539,"ELEMENT_SET_NO":999,"REV_AT_EPOCH":2922,"BSTAR":0,"MEAN_MOTION_DOT":-2.8e-7,"MEAN_MOTION_DDOT":0},{"OBJECT_NAME":"GSAT0221 (GALILEO 25)","OBJECT_ID":"2018-060A","EPOCH":"2026-06-26T10:48:27.019008","MEAN_MOTION":1.70476262,"ECCENTRICITY":0.0002518,"INCLINATION":57.1663,"RA_OF_ASC_NODE":341.5303,"ARG_OF_PERICENTER":298.4226,"MEAN_ANOMALY":61.5466,"EPHEMERIS_TYPE":0,"CLASSIFICATION_TYPE":"U","NORAD_CAT_ID":43564,"ELEMENT_SET_NO":999,"REV_AT_EPOCH":4932,"BSTAR":0,"MEAN_MOTION_DOT":-9.5e-7,"MEAN_MOTION_DDOT":0},{"OBJECT_NAME":"GSAT0222 (GALILEO 26)","OBJECT_ID":"2018-060B","EPOCH":"2026-06-25T11:55:24.810816","MEAN_MOTION":1.70476,"ECCENTRICITY":0.0002086,"INCLINATION":57.1695,"RA_OF_ASC_NODE":341.5596,"ARG_OF_PERICENTER":244.5899,"MEAN_ANOMALY":115.3843,"EPHEMERIS_TYPE":0,"CLASSIFICATION_TYPE":"U","NORAD_CAT_ID":43565,"ELEMENT_SET_NO":999,"REV_AT_EPOCH":4935,"BSTAR":0,"MEAN_MOTION_DOT":-9.7e-7,"MEAN_MOTION_DDOT":0},{"OBJECT_NAME":"GSAT0219 (GALILEO 23)","OBJECT_ID":"2018-060C","EPOCH":"2026-06-26T07:18:09.641664","MEAN_MOTION":1.70476218,"ECCENTRICITY":0.0001792,"INCLINATION":57.1694,"RA_OF_ASC_NODE":341.5394,"ARG_OF_PERICENTER":314.3403,"MEAN_ANOMALY":45.6398,"EPHEMERIS_TYPE":0,"CLASSIFICATION_TYPE":"U","NORAD_CAT_ID":43566,"ELEMENT_SET_NO":999,"REV_AT_EPOCH":4934,"BSTAR":0,"MEAN_MOTION_DOT":-9.6e-7,"MEAN_MOTION_DDOT":0},{"OBJECT_NAME":"GSAT0220 (GALILEO 24)","OBJECT_ID":"2018-060D","EPOCH":"2026-06-24T18:22:21.701280","MEAN_MOTION":1.70476182,"ECCENTRICITY":0.00019268,"INCLINATION":57.1676,"RA_OF_ASC_NODE":341.5803,"ARG_OF_PERICENTER":308.3062,"MEAN_ANOMALY":51.673,"EPHEMERIS_TYPE":0,"CLASSIFICATION_TYPE":"U","NORAD_CAT_ID":43567,"ELEMENT_SET_NO":999,"REV_AT_EPOCH":4930,"BSTAR":0,"MEAN_MOTION_DOT":-9.7e-7,"MEAN_MOTION_DDOT":0},{"OBJECT_NAME":"BEIDOU-3 M5 (C23)","OBJECT_ID":"2018-062A","EPOCH":"2026-06-26T05:38:53.016576","MEAN_MOTION":1.8622877,"ECCENTRICITY":0.0005829,"INCLINATION":54.0859,"RA_OF_ASC_NODE":181.9962,"ARG_OF_PERICENTER":291.5726,"MEAN_ANOMALY":68.3953,"EPHEMERIS_TYPE":0,"CLASSIFICATION_TYPE":"U","NORAD_CAT_ID":43581,"ELEMENT_SET_NO":999,"REV_AT_EPOCH":5380,"BSTAR":0,"MEAN_MOTION_DOT":9.7e-7,"MEAN_MOTION_DDOT":0},{"OBJECT_NAME":"BEIDOU-3 M6 (C24)","OBJECT_ID":"2018-062B","EPOCH":"2026-06-26T02:22:20.571744","MEAN_MOTION":1.86228182,"ECCENTRICITY":0.00050576,"INCLINATION":54.0857,"RA_OF_ASC_NODE":181.9897,"ARG_OF_PERICENTER":9.2241,"MEAN_ANOMALY":350.8155,"EPHEMERIS_TYPE":0,"CLASSIFICATION_TYPE":"U","NORAD_CAT_ID":43582,"ELEMENT_SET_NO":999,"REV_AT_EPOCH":5380,"BSTAR":0,"MEAN_MOTION_DOT":9.8e-7,"MEAN_MOTION_DDOT":0},{"OBJECT_NAME":"BEIDOU-3 M12 (C26)","OBJECT_ID":"2018-067A","EPOCH":"2026-06-26T00:53:39.683040","MEAN_MOTION":1.86227758,"ECCENTRICITY":0.0007828,"INCLINATION":54.181,"RA_OF_ASC_NODE":180.7397,"ARG_OF_PERICENTER":29.5974,"MEAN_ANOMALY":330.4748,"EPHEMERIS_TYPE":0,"CLASSIFICATION_TYPE":"U","NORAD_CAT_ID":43602,"ELEMENT_SET_NO":999,"REV_AT_EPOCH":5328,"BSTAR":0,"MEAN_MOTION_DOT":9.8e-7,"MEAN_MOTION_DDOT":0},{"OBJECT_NAME":"BEIDOU-3 M11 (C25)","OBJECT_ID":"2018-067B","EPOCH":"2026-06-26T04:08:11.311296","MEAN_MOTION":1.86227233,"ECCENTRICITY":0.0004573,"INCLINATION":54.1781,"RA_OF_ASC_NODE":180.6987,"ARG_OF_PERICENTER":12.463,"MEAN_ANOMALY":347.5758,"EPHEMERIS_TYPE":0,"CLASSIFICATION_TYPE":"U","NORAD_CAT_ID":43603,"ELEMENT_SET_NO":999,"REV_AT_EPOCH":5331,"BSTAR":0,"MEAN_MOTION_DOT":9.7e-7,"MEAN_MOTION_DDOT":0},{"OBJECT_NAME":"BEIDOU-3 M13 (C32)","OBJECT_ID":"2018-072A","EPOCH":"2026-06-26T03:03:04.997088","MEAN_MOTION":1.86231341,"ECCENTRICITY":0.000705,"INCLINATION":56.6328,"RA_OF_ASC_NODE":62.3641,"ARG_OF_PERICENTER":330.4803,"MEAN_ANOMALY":29.5224,"EPHEMERIS_TYPE":0,"CLASSIFICATION_TYPE":"U","NORAD_CAT_ID":43622,"ELEMENT_SET_NO":999,"REV_AT_EPOCH":5282,"BSTAR":0,"MEAN_MOTION_DOT":-8.7e-7,"MEAN_MOTION_DDOT":0},{"OBJECT_NAME":"BEIDOU-3 M14 (C33)","OBJECT_ID":"2018-072B","EPOCH":"2026-06-25T23:49:19.291296","MEAN_MOTION":1.86231224,"ECCENTRICITY":0.0006093,"INCLINATION":56.6345,"RA_OF_ASC_NODE":62.3631,"ARG_OF_PERICENTER":4.7501,"MEAN_ANOMALY":355.2976,"EPHEMERIS_TYPE":0,"CLASSIFICATION_TYPE":"U","NORAD_CAT_ID":43623,"ELEMENT_SET_NO":999,"REV_AT_EPOCH":5281,"BSTAR":0,"MEAN_MOTION_DOT":-8.8e-7,"MEAN_MOTION_DDOT":0},{"OBJECT_NAME":"BEIDOU-3 M16 (C35)","OBJECT_ID":"2018-078A","EPOCH":"2026-06-22T22:13:33.101184","MEAN_MOTION":1.8623237,"ECCENTRICITY":0.00070757,"INCLINATION":54.0842,"RA_OF_ASC_NODE":299.7848,"ARG_OF_PERICENTER":40.9359,"MEAN_ANOMALY":319.1123,"EPHEMERIS_TYPE":0,"CLASSIFICATION_TYPE":"U","NORAD_CAT_ID":43647,"ELEMENT_SET_NO":999,"REV_AT_EPOCH":5226,"BSTAR":0,"MEAN_MOTION_DOT":-1.07e-6,"MEAN_MOTION_DDOT":0},{"OBJECT_NAME":"BEIDOU-3 M15 (C34)","OBJECT_ID":"2018-078B","EPOCH":"2026-06-26T06:38:56.414976","MEAN_MOTION":1.86232565,"ECCENTRICITY":0.0003991,"INCLINATION":54.0766,"RA_OF_ASC_NODE":299.6676,"ARG_OF_PERICENTER":57.9517,"MEAN_ANOMALY":302.0826,"EPHEMERIS_TYPE":0,"CLASSIFICATION_TYPE":"U","NORAD_CAT_ID":43648,"ELEMENT_SET_NO":999,"REV_AT_EPOCH":5234,"BSTAR":0,"MEAN_MOTION_DOT":-1.0e-6,"MEAN_MOTION_DDOT":0},{"OBJECT_NAME":"BEIDOU-3 G1 (C59)","OBJECT_ID":"2018-085A","EPOCH":"2026-06-26T16:44:08.632032","MEAN_MOTION":1.00271037,"ECCENTRICITY":0.000854,"INCLINATION":2.8928,"RA_OF_ASC_NODE":97.1146,"ARG_OF_PERICENTER":351.5726,"MEAN_ANOMALY":237.0933,"EPHEMERIS_TYPE":0,"CLASSIFICATION_TYPE":"U","NORAD_CAT_ID":43683,"ELEMENT_SET_NO":999,"REV_AT_EPOCH":2815,"BSTAR":0,"MEAN_MOTION_DOT":-1.0e-6,"MEAN_MOTION_DDOT":0},{"OBJECT_NAME":"COSMOS 2529 (757)","OBJECT_ID":"2018-086A","EPOCH":"2026-06-26T02:19:47.979840","MEAN_MOTION":2.13102017,"ECCENTRICITY":0.0012114,"INCLINATION":64.2953,"RA_OF_ASC_NODE":192.2935,"ARG_OF_PERICENTER":256.4695,"MEAN_ANOMALY":103.4491,"EPHEMERIS_TYPE":0,"CLASSIFICATION_TYPE":"U","NORAD_CAT_ID":43687,"ELEMENT_SET_NO":999,"REV_AT_EPOCH":5947,"BSTAR":0,"MEAN_MOTION_DOT":1.06e-6,"MEAN_MOTION_DDOT":0}]
